STARLINK-3177           
1 51138U 22005AL  26015.86431012 -.00000062  00000+0  14217-4 0  9993
2 51138  53.2158 176.2619 0001289  84.4166 275.6974 15.08835846220759
STARLINK-3172           
1 51139U 22005AM  26015.71806406 -.00000208  00000+0  50486-5 0  9992
2 51139  53.2176 176.9335 0001303  83.7969 276.3172 15.08840014220742
STARLINK-3175           
1 51140U 22005AN  26015.72910602 -.00000668  00000+0 -23876-4 0  9992
2 51140  53.2176 176.8788 0001347  91.2203 268.8944 15.08838413220741
STARLINK-3179           
1 51141U 22005AP  26015.84222523  .00000674  00000+0  60439-4 0  9995
2 51141  53.2177 176.3658 0001219  90.4461 269.6670 15.08842926220760
STARLINK-3369           
1 51142U 22005AQ  26015.78001205  .00014742  00000+0  76370-3 0  9992
2 51142  53.2124 162.5590 0003479  75.1353 285.0027 15.16417824220947
STARLINK-3184           
1 51143U 22005AR  26015.76036649  .00000975  00000+0  79317-4 0  9999
2 51143  53.2170 186.7296 0001362  81.7489 278.3658 15.08836928220601
STARLINK-3185           
1 51144U 22005AS  26015.84686792 -.00000036  00000+0  15837-4 0  9995
2 51144  53.2169 176.3533 0001417  90.2413 269.8742 15.08839225220761
STARLINK-3354           
1 51146U 22005AU  26015.65552443 -.00000423  00000+0 -84986-5 0  9994
2 51146  53.2161 177.2110 0001929  94.9625 265.1587 15.08834165220720
STARLINK-3352           
1 51147U 22005AV  26015.88478421  .00026099  00000+0  11601-2 0  9999
2 51147  53.2112 179.0639 0002175 140.1013 220.0145 15.21367186220721
STARLINK-3359           
1 51148U 22005AW  26015.90485005  .00000369  00000+0  41272-4 0  9990
2 51148  53.2172 186.2808 0001331  72.0955 288.0182 15.08837592220629
STARLINK-3360           
1 51149U 22005AX  26015.73184781  .00000768  00000+0  66365-4 0  9992
2 51149  53.2171 186.6758 0001356  85.3866 274.7282 15.08838962220605
STARLINK-3357           
1 51150U 22005AY  26015.66923957  .00002059  00000+0  14742-3 0  9998
2 51150  53.2156 176.7517 0001419  83.3826 276.7328 15.08841961220748
STARLINK-3364           
1 51152U 22005BA  26015.90750503  .00000241  00000+0  33217-4 0  9992
2 51152  53.2164 185.6814 0001299  91.5730 268.5411 15.08836759220638
STARLINK-3181           
1 51461U 22010F   26015.71159203  .00000334  00000+0  39050-4 0  9994
2 51461  53.2173 156.9491 0001286  75.2885 284.8250 15.08838888218824
STARLINK-3166           
1 51462U 22010G   26015.70886996  .00000140  00000+0  26859-4 0  9998
2 51462  53.2175 156.9697 0001199  81.9504 278.1625 15.08839084218821
STARLINK-3419           
1 51463U 22010H   26015.68215681  .00000591  00000+0  55190-4 0  9993
2 51463  53.2179 157.0833 0001121  76.3099 283.8018 15.08847749218514
