[{"OBJECT_NAME":"STARLINK-3177","OBJECT_ID":"2022-005AL","EPOCH":"2026-01-15T20:44:36.394368","MEAN_MOTION":15.08835846,"ECCENTRICITY":0.00012897,"INCLINATION":53.2158,"RA_OF_ASC_NODE":176.2619,"ARG_OF_PERICENTER":84.4166,"MEAN_ANOMALY":275.6974,"EPHEMERIS_TYPE":0,"CLASSIFICATION_TYPE":"U","NORAD_CAT_ID":51138,"ELEMENT_SET_NO":999,"REV_AT_EPOCH":22075,"BSTAR":1.4217093e-5,"MEAN_MOTION_DOT":-6.2e-7,"MEAN_MOTION_DDOT":0},{"OBJECT_NAME":"STARLINK-3172","OBJECT_ID":"2022-005AM","EPOCH":"2026-01-15T17:14:00.734784","MEAN_MOTION":15.08840014,"ECCENTRICITY":0.00013033,"INCLINATION":53.2176,"RA_OF_ASC_NODE":176.9335,"ARG_OF_PERICENTER":83.7969,"MEAN_ANOMALY":276.3172,"EPHEMERIS_TYPE":0,"CLASSIFICATION_TYPE":"U","NORAD_CAT_ID":51139,"ELEMENT_SET_NO":999,"REV_AT_EPOCH":22074,"BSTAR":5.048631e-6,"MEAN_MOTION_DOT":-2.08e-6,"MEAN_MOTION_DDOT":0},{"OBJECT_NAME":"STARLINK-3175","OBJECT_ID":"2022-005AN","EPOCH":"2026-01-15T17:29:54.760128","MEAN_MOTION":15.08838413,"ECCENTRICITY":0.00013476,"INCLINATION":53.2176,"RA_OF_ASC_NODE":176.8788,"ARG_OF_PERICENTER":91.2203,"MEAN_ANOMALY":268.8944,"EPHEMERIS_TYPE":0,"CLASSIFICATION_TYPE":"U","NORAD_CAT_ID":51140,"ELEMENT_SET_NO":999,"REV_AT_EPOCH":22074,"BSTAR":-2.3876274e-5,"MEAN_MOTION_DOT":-6.68e-6,"MEAN_MOTION_DDOT":0},{"OBJECT_NAME":"STARLINK-3179","OBJECT_ID":"2022-005AP","EPOCH":"2026-01-15T20:12:48.259872","MEAN_MOTION":15.08842926,"ECCENTRICITY":0.00012193,"INCLINATION":53.2177,"RA_OF_ASC_NODE":176.3658,"ARG_OF_PERICENTER":90.4461,"MEAN_ANOMALY":269.667,"EPHEMERIS_TYPE":0,"CLASSIFICATION_TYPE":"U","NORAD_CAT_ID":51141,"ELEMENT_SET_NO":999,"REV_AT_EPOCH":22076,"BSTAR":6.0438744e-5,"MEAN_MOTION_DOT":6.74e-6,"MEAN_MOTION_DDOT":0},{"OBJECT_NAME":"STARLINK-3369","OBJECT_ID":"2022-005AQ","EPOCH":"2026-01-15T18:43:13.041120","MEAN_MOTION":15.16417824,"ECCENTRICITY":0.00034792,"INCLINATION":53.2124,"RA_OF_ASC_NODE":162.559,"ARG_OF_PERICENTER":75.1353,"MEAN_ANOMALY":285.0027,"EPHEMERIS_TYPE":0,"CLASSIFICATION_TYPE":"U","NORAD_CAT_ID":51142,"ELEMENT_SET_NO":999,"REV_AT_EPOCH":22094,"BSTAR":0.00076370482,"MEAN_MOTION_DOT":0.00014742,"MEAN_MOTION_DDOT":0},{"OBJECT_NAME":"STARLINK-3184","OBJECT_ID":"2022-005AR","EPOCH":"2026-01-15T18:14:55.664736","MEAN_MOTION":15.08836928,"ECCENTRICITY":0.00013622,"INCLINATION":53.217,"RA_OF_ASC_NODE":186.7296,"ARG_OF_PERICENTER":81.7489,"MEAN_ANOMALY":278.3658,"EPHEMERIS_TYPE":0,"CLASSIFICATION_TYPE":"U","NORAD_CAT_ID":51143,"ELEMENT_SET_NO":999,"REV_AT_EPOCH":22060,"BSTAR":7.9317422e-5,"MEAN_MOTION_DOT":9.75e-6,"MEAN_MOTION_DDOT":0},{"OBJECT_NAME":"STARLINK-3185","OBJECT_ID":"2022-005AS","EPOCH":"2026-01-15T20:19:29.388288","MEAN_MOTION":15.08839225,"ECCENTRICITY":0.00014175,"INCLINATION":53.2169,"RA_OF_ASC_NODE":176.3533,"ARG_OF_PERICENTER":90.2413,"MEAN_ANOMALY":269.8742,"EPHEMERIS_TYPE":0,"CLASSIFICATION_TYPE":"U","NORAD_CAT_ID":51144,"ELEMENT_SET_NO":999,"REV_AT_EPOCH":22076,"BSTAR":1.5836799e-5,"MEAN_MOTION_DOT":-3.6e-7,"MEAN_MOTION_DDOT":0},{"OBJECT_NAME":"STARLINK-3354","OBJECT_ID":"2022-005AU","EPOCH":"2026-01-15T15:43:57.310752","MEAN_MOTION":15.08834165,"ECCENTRICITY":0.00019297,"INCLINATION":53.2161,"RA_OF_ASC_NODE":177.211,"ARG_OF_PERICENTER":94.9625,"MEAN_ANOMALY":265.1587,"EPHEMERIS_TYPE":0,"CLASSIFICATION_TYPE":"U","NORAD_CAT_ID":51146,"ELEMENT_SET_NO":999,"REV_AT_EPOCH":22072,"BSTAR":-8.498625e-6,"MEAN_MOTION_DOT":-4.23e-6,"MEAN_MOTION_DDOT":0},{"OBJECT_NAME":"STARLINK-3352","OBJECT_ID":"2022-005AV","EPOCH":"2026-01-15T21:14:05.355744","MEAN_MOTION":15.21367186,"ECCENTRICITY":0.00021753,"INCLINATION":53.2112,"RA_OF_ASC_NODE":179.0639,"ARG_OF_PERICENTER":140.1013,"MEAN_ANOMALY":220.0145,"EPHEMERIS_TYPE":0,"CLASSIFICATION_TYPE":"U","NORAD_CAT_ID":51147,"ELEMENT_SET_NO":999,"REV_AT_EPOCH":22072,"BSTAR":0.0011601411,"MEAN_MOTION_DOT":0.00026099,"MEAN_MOTION_DDOT":0},{"OBJECT_NAME":"STARLINK-3359","OBJECT_ID":"2022-005AW","EPOCH":"2026-01-15T21:42:59.044320","MEAN_MOTION":15.08837592,"ECCENTRICITY":0.0001331,"INCLINATION":53.2172,"RA_OF_ASC_NODE":186.2808,"ARG_OF_PERICENTER":72.0955,"MEAN_ANOMALY":288.0182,"EPHEMERIS_TYPE":0,"CLASSIFICATION_TYPE":"U","NORAD_CAT_ID":51148,"ELEMENT_SET_NO":999,"REV_AT_EPOCH":22062,"BSTAR":4.1271728e-5,"MEAN_MOTION_DOT":3.69e-6,"MEAN_MOTION_DDOT":0},{"OBJECT_NAME":"STARLINK-3360","OBJECT_ID":"2022-005AX","EPOCH":"2026-01-15T17:33:51.650784","MEAN_MOTION":15.08838962,"ECCENTRICITY":0.00013565,"INCLINATION":53.2171,"RA_OF_ASC_NODE":186.6758,"ARG_OF_PERICENTER":85.3866,"MEAN_ANOMALY":274.7282,"EPHEMERIS_TYPE":0,"CLASSIFICATION_TYPE":"U","NORAD_CAT_ID":51149,"ELEMENT_SET_NO":999,"REV_AT_EPOCH":22060,"BSTAR":6.6365001e-5,"MEAN_MOTION_DOT":7.68e-6,"MEAN_MOTION_DDOT":0},{"OBJECT_NAME":"STARLINK-3357","OBJECT_ID":"2022-005AY","EPOCH":"2026-01-15T16:03:42.298848","MEAN_MOTION":15.08841961,"ECCENTRICITY":0.00014196,"INCLINATION":53.2156,"RA_OF_ASC_NODE":176.7517,"ARG_OF_PERICENTER":83.3826,"MEAN_ANOMALY":276.7328,"EPHEMERIS_TYPE":0,"CLASSIFICATION_TYPE":"U","NORAD_CAT_ID":51150,"ELEMENT_SET_NO":999,"REV_AT_EPOCH":22074,"BSTAR":0.00014741905,"MEAN_MOTION_DOT":2.059e-5,"MEAN_MOTION_DDOT":0},{"OBJECT_NAME":"STARLINK-3364","OBJECT_ID":"2022-005BA","EPOCH":"2026-01-15T21:46:48.434592","MEAN_MOTION":15.08836759,"ECCENTRICITY":0.00012992,"INCLINATION":53.2164,"RA_OF_ASC_NODE":185.6814,"ARG_OF_PERICENTER":91.573,"MEAN_ANOMALY":268.5411,"EPHEMERIS_TYPE":0,"CLASSIFICATION_TYPE":"U","NORAD_CAT_ID":51152,"ELEMENT_SET_NO":999,"REV_AT_EPOCH":22063,"BSTAR":3.3216805e-5,"MEAN_MOTION_DOT":2.41e-6,"MEAN_MOTION_DDOT":0},{"OBJECT_NAME":"STARLINK-3181","OBJECT_ID":"2022-010F","EPOCH":"2026-01-15T17:04:41.551392","MEAN_MOTION":15.08838888,"ECCENTRICITY":0.00012863,"INCLINATION":53.2173,"RA_OF_ASC_NODE":156.9491,"ARG_OF_PERICENTER":75.2885,"MEAN_ANOMALY":284.825,"EPHEMERIS_TYPE":0,"CLASSIFICATION_TYPE":"U","NORAD_CAT_ID":51461,"ELEMENT_SET_NO":999,"REV_AT_EPOCH":21882,"BSTAR":3.9049553e-5,"MEAN_MOTION_DOT":3.34e-6,"MEAN_MOTION_DDOT":0},{"OBJECT_NAME":"STARLINK-3166","OBJECT_ID":"2022-010G","EPOCH":"2026-01-15T17:00:46.364544","MEAN_MOTION":15.08839084,"ECCENTRICITY":0.00011999,"INCLINATION":53.2175,"RA_OF_ASC_NODE":156.9697,"ARG_OF_PERICENTER":81.9504,"MEAN_ANOMALY":278.1625,"EPHEMERIS_TYPE":0,"CLASSIFICATION_TYPE":"U","NORAD_CAT_ID":51462,"ELEMENT_SET_NO":999,"REV_AT_EPOCH":21882,"BSTAR":2.6858907e-5,"MEAN_MOTION_DOT":1.4e-6,"MEAN_MOTION_DDOT":0},{"OBJECT_NAME":"STARLINK-3419","OBJECT_ID":"2022-010H","EPOCH":"2026-01-15T16:22:18.348384","MEAN_MOTION":15.08847749,"ECCENTRICITY":0.00011213,"INCLINATION":53.2179,"RA_OF_ASC_NODE":157.0833,"ARG_OF_PERICENTER":76.3099,"MEAN_ANOMALY":283.8018,"EPHEMERIS_TYPE":0,"CLASSIFICATION_TYPE":"U","NORAD_CAT_ID":51463,"ELEMENT_SET_NO":999,"REV_AT_EPOCH":21851,"BSTAR":5.5190022e-5,"MEAN_MOTION_DOT":5.91e-6,"MEAN_MOTION_DDOT":0}]
